{"type": "FeatureCollection", "features": [ {"type": "Feature", "properties": {"norad_id": 28659, "name": "DIRECTV 8", "group": "intelsat", "lat": 0.017906018575150364, "lon": 78.05959798260018, "alt_km": 35798.90498742279, "timestamp": "2025-12-12T07:43:20.171147+00:00", "meta": {"OBJECT_NAME": "DIRECTV 8", "OBJECT_ID": "2005-019A", "EPOCH": "2025-12-11T23:13:06.320928", "MEAN_MOTION": 1.00271659, "ECCENTRICITY": 0.00030481, "INCLINATION": 0.0169, "RA_OF_ASC_NODE": 56.041, "ARG_OF_PERICENTER": 209.0774, "MEAN_ANOMALY": 45.0355, "EPHEMERIS_TYPE": 0, "CLASSIFICATION_TYPE": "U", "NORAD_CAT_ID": 28659, "ELEMENT_SET_NO": 999, "REV_AT_EPOCH": 7519, "BSTAR": 0, "MEAN_MOTION_DOT": 1e-07, "MEAN_MOTION_DDOT": 0}, "tle": {"line1": "1 28659U 05019A   25345.96743427  .00000010  00000+0  00000+0 0  9995", "line2": "2 28659   0.0169  56.0410 0003048 209.0774  45.0355  1.00271659 75193"}}, "geometry": {"type": "Point", "coordinates": [78.05959798260018, 0.017906018575150364]}}, {"type": "Feature", "properties": {"norad_id": 28702, "name": "GALAXY 28 (G-28)", "group": "intelsat", "lat": 1.2989580900084863, "lon": 108.37362171944241, "alt_km": 35796.38295738539, "timestamp": "2025-12-12T07:43:20.171158+00:00", "meta": {"OBJECT_NAME": "GALAXY 28 (G-28)", "OBJECT_ID": "2005-022A", "EPOCH": "2025-12-11T23:21:42.996384", "MEAN_MOTION": 1.00272457, "ECCENTRICITY": 0.00027557, "INCLINATION": 2.8166, "RA_OF_ASC_NODE": 81.2885, "ARG_OF_PERICENTER": 182.9357, "MEAN_ANOMALY": 78.4447, "EPHEMERIS_TYPE": 0, "CLASSIFICATION_TYPE": "U", "NORAD_CAT_ID": 28702, "ELEMENT_SET_NO": 999, "REV_AT_EPOCH": 5009, "BSTAR": 0, "MEAN_MOTION_DOT": -1.79e-06, "MEAN_MOTION_DDOT": 0}, "tle": {"line1": "1 28702U 05022A   25345.97341431 -.00000179  00000+0  00000+0 0  9995", "line2": "2 28702   2.8166  81.2885 0002755 182.9357  78.4447  1.00272457 50096"}}, "geometry": {"type": "Point", "coordinates": [108.37362171944241, 1.2989580900084863]}}, {"type": "Feature", "properties": {"norad_id": 29236, "name": "GALAXY 16 (G-16)", "group": "intelsat", "lat": -0.005663001792198727, "lon": 98.0823871134866, "alt_km": 35796.551854758305, "timestamp": "2025-12-12T07:43:20.171171+00:00", "meta": {"OBJECT_NAME": "GALAXY 16 (G-16)", "OBJECT_ID": "2006-023A", "EPOCH": "2025-12-11T23:18:50.770944", "MEAN_MOTION": 1.00272293, "ECCENTRICITY": 0.00026671, "INCLINATION": 0.0465, "RA_OF_ASC_NODE": 136.7183, "ARG_OF_PERICENTER": 121.2412, "MEAN_ANOMALY": 73.6704, "EPHEMERIS_TYPE": 0, "CLASSIFICATION_TYPE": "U", "NORAD_CAT_ID": 29236, "ELEMENT_SET_NO": 999, "REV_AT_EPOCH": 7109, "BSTAR": 0, "MEAN_MOTION_DOT": -1.18e-06, "MEAN_MOTION_DDOT": 0}, "tle": {"line1": "1 29236U 06023A   25345.97142096 -.00000118  00000+0  00000+0 0  9999", "line2": "2 29236   0.0465 136.7183 0002667 121.2412  73.6704  1.00272293 71092"}}, "geometry": {"type": "Point", "coordinates": [98.0823871134866, -0.005663001792198727]}}, {"type": "Feature", "properties": {"norad_id": 29494, "name": "DIRECTV 9S", "group": "intelsat", "lat": 0.442098744066017, "lon": 95.8732038565033, "alt_km": 35798.622248985645, "timestamp": "2025-12-12T07:43:20.171182+00:00", "meta": {"OBJECT_NAME": "DIRECTV 9S", "OBJECT_ID": "2006-043A", "EPOCH": "2025-12-11T23:18:13.331232", "MEAN_MOTION": 1.0027181, "ECCENTRICITY": 0.00030435, "INCLINATION": 1.9385, "RA_OF_ASC_NODE": 83.2185, "ARG_OF_PERICENTER": 180.636, "MEAN_ANOMALY": 65.4128, "EPHEMERIS_TYPE": 0, "CLASSIFICATION_TYPE": "U", "NORAD_CAT_ID": 29494, "ELEMENT_SET_NO": 999, "REV_AT_EPOCH": 4950, "BSTAR": 0, "MEAN_MOTION_DOT": -1.05e-06, "MEAN_MOTION_DDOT": 0}, "tle": {"line1": "1 29494U 06043A   25345.97098763 -.00000105  00000+0  00000+0 0  9994", "line2": "2 29494   1.9385  83.2185 0003043 180.6360  65.4128  1.00271810 49501"}}, "geometry": {"type": "Point", "coordinates": [95.8732038565033, 0.442098744066017]}}, {"type": "Feature", "properties": {"norad_id": 31307, "name": "GALAXY 17 (G-17)", "group": "intelsat", "lat": 1.2552412138239357, "lon": 112.04510617654084, "alt_km": 35803.12240847228, "timestamp": "2025-12-12T07:43:20.171210+00:00", "meta": {"OBJECT_NAME": "GALAXY 17 (G-17)", "OBJECT_ID": "2007-016B", "EPOCH": "2025-12-11T23:22:50.388384", "MEAN_MOTION": 1.00272491, "ECCENTRICITY": 0.00058889, "INCLINATION": 2.4984, "RA_OF_ASC_NODE": 82.2932, "ARG_OF_PERICENTER": 163.9118, "MEAN_ANOMALY": 100.448, "EPHEMERIS_TYPE": 0, "CLASSIFICATION_TYPE": "U", "NORAD_CAT_ID": 31307, "ELEMENT_SET_NO": 999, "REV_AT_EPOCH": 6792, "BSTAR": 0, "MEAN_MOTION_DOT": -1.98e-06, "MEAN_MOTION_DDOT": 0}, "tle": {"line1": "1 31307U 07016B   25345.97419431 -.00000198  00000+0  00000+0 0  9992", "line2": "2 31307   2.4984  82.2932 0005888 163.9118 100.4480  1.00272491 67924"}}, "geometry": {"type": "Point", "coordinates": [112.04510617654084, 1.2552412138239357]}}, {"type": "Feature", "properties": {"norad_id": 31862, "name": "DIRECTV 10", "group": "intelsat", "lat": -0.005020541506747606, "lon": 94.31256280535025, "alt_km": 35787.1256310624, "timestamp": "2025-12-12T07:43:20.171229+00:00", "meta": {"OBJECT_NAME": "DIRECTV 10", "OBJECT_ID": "2007-032A", "EPOCH": "2025-12-11T14:44:08.030112", "MEAN_MOTION": 1.00271436, "ECCENTRICITY": 3.191e-05, "INCLINATION": 0.0124, "RA_OF_ASC_NODE": 167.5307, "ARG_OF_PERICENTER": 60.5816, "MEAN_ANOMALY": 330.7109, "EPHEMERIS_TYPE": 0, "CLASSIFICATION_TYPE": "U", "NORAD_CAT_ID": 31862, "ELEMENT_SET_NO": 999, "REV_AT_EPOCH": 4371, "BSTAR": 0, "MEAN_MOTION_DOT": -9.6e-07, "MEAN_MOTION_DDOT": 0}, "tle": {"line1": "1 31862U 07032A   25345.61398183 -.00000096  00000+0  00000+0 0  9994", "line2": "2 31862   0.0124 167.5307 0000319  60.5816 330.7109  1.00271436 43719"}}, "geometry": {"type": "Point", "coordinates": [94.31256280535025, -0.005020541506747606]}}, {"type": "Feature", "properties": {"norad_id": 32253, "name": "INTELSAT 11 (IS-11)", "group": "intelsat", "lat": -0.8482477820680616, "lon": 64.64164876690549, "alt_km": 36170.72086179888, "timestamp": "2025-12-12T07:43:20.171246+00:00", "meta": {"OBJECT_NAME": "INTELSAT 11 (IS-11)", "OBJECT_ID": "2007-044B", "EPOCH": "2025-12-11T23:09:44.144064", "MEAN_MOTION": 0.99048438, "ECCENTRICITY": 0.00089295, "INCLINATION": 3.0785, "RA_OF_ASC_NODE": 80.9849, "ARG_OF_PERICENTER": 165.5765, "MEAN_ANOMALY": 50.8768, "EPHEMERIS_TYPE": 0, "CLASSIFICATION_TYPE": "U", "NORAD_CAT_ID": 32253, "ELEMENT_SET_NO": 999, "REV_AT_EPOCH": 6659, "BSTAR": 0, "MEAN_MOTION_DOT": 8.1e-07, "MEAN_MOTION_DDOT": 0}, "tle": {"line1": "1 32253U 07044B   25345.96509426  .00000081  00000+0  00000+0 0  9997", "line2": "2 32253   3.0785  80.9849 0008929 165.5765  50.8768  0.99048438 66596"}}, "geometry": {"type": "Point", "coordinates": [64.64164876690549, -0.8482477820680616]}}, {"type": "Feature", "properties": {"norad_id": 32388, "name": "HORIZONS-2", "group": "intelsat", "lat": 1.3830062251051956, "lon": 123.2555218936778, "alt_km": 35804.29018604701, "timestamp": "2025-12-12T07:43:20.171259+00:00", "meta": {"OBJECT_NAME": "HORIZONS-2", "OBJECT_ID": "2007-063B", "EPOCH": "2025-12-11T23:25:57.588672", "MEAN_MOTION": 1.00270012, "ECCENTRICITY": 0.00049272, "INCLINATION": 2.1197, "RA_OF_ASC_NODE": 82.9688, "ARG_OF_PERICENTER": 189.3518, "MEAN_ANOMALY": 86.3047, "EPHEMERIS_TYPE": 0, "CLASSIFICATION_TYPE": "U", "NORAD_CAT_ID": 32388, "ELEMENT_SET_NO": 999, "REV_AT_EPOCH": 6593, "BSTAR": 0, "MEAN_MOTION_DOT": -2.45e-06, "MEAN_MOTION_DDOT": 0}, "tle": {"line1": "1 32388U 07063B   25345.97636098 -.00000245  00000+0  00000+0 0  9997", "line2": "2 32388   2.1197  82.9688 0004927 189.3518  86.3047  1.00270012 65938"}}, "geometry": {"type": "Point", "coordinates": [123.2555218936778, 1.3830062251051956]}}, {"type": "Feature", "properties": {"norad_id": 32729, "name": "DIRECTV 11", "group": "intelsat", "lat": -0.006189996711224084, "lon": 97.89931035004123, "alt_km": 35786.21473562451, "timestamp": "2025-12-12T07:43:20.171271+00:00", "meta": {"OBJECT_NAME": "DIRECTV 11", "OBJECT_ID": "2008-013A", "EPOCH": "2025-12-11T21:35:58.588224", "MEAN_MOTION": 1.00271084, "ECCENTRICITY": 5.409e-05, "INCLINATION": 0.0355, "RA_OF_ASC_NODE": 183.5345, "ARG_OF_PERICENTER": 2.2866, "MEAN_ANOMALY": 119.8352, "EPHEMERIS_TYPE": 0, "CLASSIFICATION_TYPE": "U", "NORAD_CAT_ID": 32729, "ELEMENT_SET_NO": 999, "REV_AT_EPOCH": 4371, "BSTAR": 0, "MEAN_MOTION_DOT": -1.17e-06, "MEAN_MOTION_DDOT": 0}, "tle": {"line1": "1 32729U 08013A   25345.89998366 -.00000117  00000+0  00000+0 0  9990", "line2": "2 32729   0.0355 183.5345 0000540   2.2866 119.8352  1.00271084 43717"}}, "geometry": {"type": "Point", "coordinates": [97.89931035004123, -0.006189996711224084]}}, {"type": "Feature", "properties": {"norad_id": 32951, "name": "GALAXY 18 (G-18)", "group": "intelsat", "lat": 0.035436132523596627, "lon": 74.09715434432196, "alt_km": 35798.94452412956, "timestamp": "2025-12-12T07:43:20.171283+00:00", "meta": {"OBJECT_NAME": "GALAXY 18 (G-18)", "OBJECT_ID": "2008-024A", "EPOCH": "2025-12-11T23:11:58.928928", "MEAN_MOTION": 1.0027135, "ECCENTRICITY": 0.00030553, "INCLINATION": 0.0197, "RA_OF_ASC_NODE": 321.1345, "ARG_OF_PERICENTER": 302.211, "MEAN_ANOMALY": 42.5635, "EPHEMERIS_TYPE": 0, "CLASSIFICATION_TYPE": "U", "NORAD_CAT_ID": 32951, "ELEMENT_SET_NO": 999, "REV_AT_EPOCH": 4397, "BSTAR": 0, "MEAN_MOTION_DOT": 3.4e-07, "MEAN_MOTION_DDOT": 0}, "tle": {"line1": "1 32951U 08024A   25345.96665427  .00000034  00000+0  00000+0 0  9993", "line2": "2 32951   0.0197 321.1345 0003055 302.2110  42.5635  1.00271350 43977"}}, "geometry": {"type": "Point", "coordinates": [74.09715434432196, 0.035436132523596627]}}]}